<?xml version="1.0" encoding="UTF-8"?>
<kml xmlns="http://www.opengis.net/kml/2.2" xmlns:gx="http://www.google.com/kml/ext/2.2" xmlns:kml="http://www.opengis.net/kml/2.2" xmlns:atom="http://www.w3.org/2005/Atom">
<Document id="document">
	<name>Rohtang trek 2025 route</name>
	<gx:CascadingStyle kml:id="__managed_style_05C42043253FFC7CE149_highlight">
		<Style>
			<IconStyle>
				<scale>1.2</scale>
				<Icon>
					<href>https://earth.google.com/earth/document/icon?color=1976d2&amp;id=2000&amp;scale=4</href>
				</Icon>
				<hotSpot x="64" y="128" xunits="pixels" yunits="insetPixels"/>
			</IconStyle>
			<LabelStyle>
			</LabelStyle>
			<LineStyle>
				<color>ff2dc0fb</color>
				<width>2.4</width>
			</LineStyle>
			<PolyStyle>
				<color>40ffffff</color>
			</PolyStyle>
			<BalloonStyle>
				<displayMode>hide</displayMode>
			</BalloonStyle>
		</Style>
	</gx:CascadingStyle>
	<gx:CascadingStyle kml:id="__managed_style_05C42043253FFC7CE149_normal">
		<Style>
			<IconStyle>
				<Icon>
					<href>https://earth.google.com/earth/document/icon?color=1976d2&amp;id=2000&amp;scale=4</href>
				</Icon>
				<hotSpot x="64" y="128" xunits="pixels" yunits="insetPixels"/>
			</IconStyle>
			<LabelStyle>
			</LabelStyle>
			<LineStyle>
				<color>ff2dc0fb</color>
				<width>1.6</width>
			</LineStyle>
			<PolyStyle>
				<color>40ffffff</color>
			</PolyStyle>
			<BalloonStyle>
				<displayMode>hide</displayMode>
			</BalloonStyle>
		</Style>
	</gx:CascadingStyle>
	<StyleMap id="__managed_style_05C42043253FFC7CE149">
		<Pair>
			<key>normal</key>
			<styleUrl>#__managed_style_05C42043253FFC7CE149_normal</styleUrl>
		</Pair>
		<Pair>
			<key>highlight</key>
			<styleUrl>#__managed_style_05C42043253FFC7CE149_highlight</styleUrl>
		</Pair>
	</StyleMap>
	<Placemark id="09FC2DF6D03FFC7CE130">
		<name>Untitled path</name>
		<LookAt>
			<longitude>77.24182883593107</longitude>
			<latitude>32.39467482478582</latitude>
			<altitude>3789.662127563577</altitude>
			<heading>-150.520097436835</heading>
			<tilt>68.36972929872296</tilt>
			<gx:fovy>35</gx:fovy>
			<range>6007.812499698485</range>
			<altitudeMode>absolute</altitudeMode>
		</LookAt>
		<styleUrl>#__managed_style_05C42043253FFC7CE149</styleUrl>
		<LineString>
			<coordinates>
				77.25704232912783,32.39456993268694,0 77.25723692480015,32.39338993665848,0 77.25766132425419,32.39260413329738,0 77.25798988078411,32.39235419080015,0 77.25843963573473,32.39200543151209,0 77.25869122176226,32.39159668007859,0 77.25839456588608,32.39138097752138,0 77.25837483495837,32.39105960001515,0 77.2578849597831,32.39085928591038,0 77.25741303559188,32.39072259883016,0 77.25724517099732,32.39029306796042,0 77.2575198600269,32.3899789492124,0 77.25731286476753,32.38924310270051,0 77.25645288002792,32.38961692568597,0 77.25609328389409,32.39036073986742,0 77.25582757858287,32.39054103833398,0 77.25543964402529,32.39040377323487,0 77.25480397674362,32.38997098602048,0 77.25423181929186,32.38958446195952,0 77.25350352716583,32.38941715707571,0 77.25325283755427,32.39128616674915,0 77.25179794487232,32.39248401543069,0 77.25135461731449,32.39264637801811,0 77.25259310150015,32.39131175958133,0 77.25278050958447,32.3898205886997,0 77.25324620475853,32.38825440247427,0 77.25212725845819,32.39039305504139,0 77.25152350273383,32.39096706565012,0 77.2510029850915,32.39176830978265,0 77.2503521902304,32.39201340084754,0 77.25147778889824,32.39014578671876,0 77.25158546826343,32.38941214100744,0 77.25019369166012,32.39088157365672,0 77.24943847359326,32.39162427598306,0 77.24934283064671,32.39140439047274,0 77.25064343677349,32.38946901254536,0 77.2519785538489,32.38846781328278,0 77.25172638560606,32.388206654763,0 77.25085112099349,32.38892720245847,0 77.24822344519475,32.39069722455832,0 77.25151723172132,32.38666041531179,0 77.24962997383618,32.38814842206261,0 77.24771532923796,32.38952544490951,0 77.24739377156864,32.38948206295591,0 77.24778176897414,32.38916900408496,0 77.24907274238332,32.3880677840132,0 77.25010685911552,32.38655446292562,0 77.25068324889065,32.38589931990713,0 77.25087144478331,32.38544207867535,0 77.24933565003485,32.38634301534811,0 77.24717448413028,32.38809941980064,0 77.24616459308395,32.38848279452052,0 77.24742951820542,32.38722901276439,0 77.24889229712424,32.38538688490444,0 77.25128022703525,32.38287514286601,0 77.25090262074853,32.38275272193192,0 77.24997598874596,32.38344236089856,0 77.2486118188618,32.38454500911835,0 77.2460307271034,32.3869416696477,0 77.24780383191282,32.38502823442855,0 77.2488777280882,32.38356769677495,0 77.25093892706484,32.38042126524829,0 77.25231080697378,32.37914640170968,0 77.25079530305263,32.37754694784673,0 77.24951606379271,32.37527175837756,0 77.24805888614473,32.37299942319773,0 
			</coordinates>
		</LineString>
	</Placemark>
</Document>
</kml>
